IRIDIUM 171             
1 43929U 19002H   25349.32128485  .00000240  00000+0  78755-4 0  9996
2 43929  86.3976  70.7242 0002371  99.5647 260.5817 14.34216285362605
IRIDIUM 170             
1 43930U 19002J   25349.31253242  .00000079  00000+0  86148-5 0  9993
2 43930  86.6086  70.4396 0002221  90.9741 269.1731 14.72243899372203
IRIDIUM 167             
1 43931U 19002K   25349.31494318  .00000194  00000+0  62258-4 0  9998
2 43931  86.3966  70.4615 0002474 105.0851 255.0619 14.34216866362606
IRIDIUM 181             
1 56726U 23068S   25349.10625611  .00000444  00000+0  12600-3 0  9993
2 56726  86.4513 133.7373 0002399  84.8117 275.3357 14.43308248135888
IRIDIUM 177             
1 56727U 23068T   25349.17580898  .00001433  00000+0  18513-3 0  9996
2 56727  86.1968  56.1732 0002294  85.6438 274.5045 14.80212728139142
IRIDIUM 174             
1 56728U 23068U   25349.30015879  .00001258  00000+0  19565-3 0  9997
2 56728  86.6095  70.5740 0002195  88.0886 272.0583 14.72255425138963
IRIDIUM 178             
1 56729U 23068V   25349.36769624  .00001374  00000+0  17740-3 0  9990
2 56729  86.6535 102.2009 0002524  97.5755 262.5753 14.80243493139178
IRIDIUM 179             
1 56730U 23068W   25349.36234258  .00001318  00000+0  16999-3 0  9995
2 56730  86.6776 110.6340 0002450  89.9443 270.2059 14.80231573139176
